ASTROCAST-0403          
1 55111U 23001DG  26068.82333059  .00013959  00000+0  51317-3 0  9990
2 55111  97.5604 161.3228 0004771 338.0704  22.0330 15.28004949129377
STARLINK-33562          
1 62102U 24220Q   26068.69814410  .00032596  00000+0  11885-2 0  9995
2 62102  43.0044 205.4020 0001912 282.2757  77.7881 15.27588869 73026
